OBJECT_NAME,OBJECT_ID,EPOCH,MEAN_MOTION,ECCENTRICITY,INCLINATION,RA_OF_ASC_NODE,ARG_OF_PERICENTER,MEAN_ANOMALY,EPHEMERIS_TYPE,CLASSIFICATION_TYPE,NORAD_CAT_ID,ELEMENT_SET_NO,REV_AT_EPOCH,BSTAR,MEAN_MOTION_DOT,MEAN_MOTION_DDOT
PERSEUS-M1,2014-033AF,2026-06-06T15:59:16.611072,14.95601690,.0010861,97.9642,101.6258,341.2925,18.7895,0,U,40039,999,64906,.25013E-3,.2719E-4,0
POLYITAN-1,2014-033AJ,2026-06-06T20:53:05.002656,15.32894505,.0007835,98.0951,183.1584,171.6009,188.5364,0,U,40042,999,65201,.66513E-3,.21098E-3,0
TIGRISAT,2014-033AK,2026-06-06T16:08:44.748096,14.85120610,.0050698,97.7825,307.9266,108.7426,251.9300,0,U,40043,999,64406,.29957E-3,.2567E-4,0
AEROCUBE 6A,2014-033AM,2026-06-06T09:40:36.641568,14.97989826,.00393631,97.7224,324.4674,53.4951,306.9887,0,U,40045,999,64500,.70808653E-3,.8437E-4,0
AEROCUBE 6B,2014-033AN,2026-06-06T05:10:49.926432,14.99446844,.0039048,97.7226,324.0473,46.3596,314.0854,0,U,40046,999,64511,.76026709E-3,.9415E-4,0
CANX-4,2014-034C,2026-06-06T19:35:54.519936,14.81245612,.0013815,98.3134,32.7484,48.5056,311.7338,0,U,40055,999,64299,.13852E-3,.1023E-4,0
CANX-5,2014-034D,2026-06-06T21:11:05.902080,14.81262857,.0013806,98.3137,32.8600,48.4720,311.7673,0,U,40056,999,63381,.13859E-3,.1024E-4,0
UKUBE-1,2014-037F,2026-06-06T20:30:24.956928,15.13388051,.0002048,98.4243,160.0422,144.2511,215.8855,0,U,40074,999,64699,.55356E-3,.9808E-4,0
BRITE-PL2 (HEWELIUSZ),2014-049B,2026-06-06T04:37:17.262624,14.94554868,.00150514,97.9087,269.1089,141.6770,218.5523,0,U,40119,999,63980,.30174932E-3,.321E-4,0
AEROCUBE 5C,2015-058B,2026-06-06T18:39:32.800608,14.91403984,.0130359,64.7684,294.9732,67.3558,294.1280,0,U,40965,999,36410,.29893E-3,.3347E-4,0
AEROCUBE 7,2015-058C,2026-06-06T14:28:08.451840,14.95656933,.01201,64.7631,277.9668,65.9158,295.4465,0,U,40966,999,36437,.37233E-3,.4622E-4,0
FOX-1A (AO-85),2015-058D,2026-06-06T14:53:26.022048,14.90916620,.0129891,64.7764,311.8208,60.7292,300.6731,0,U,40967,999,11199,.30158E-3,.3329E-4,0
SINOD-D 1,2015-058E,2026-06-06T13:58:13.054656,14.95835875,.0118457,64.7762,292.1222,57.3168,303.9305,0,U,40968,999,11507,.36985E-3,.4594E-4,0
SNAP-3 ALICE,2015-058G,2026-06-06T15:39:58.711104,15.57674790,.0031175,64.7500,140.2793,17.9437,342.2800,0,U,40970,999,11524,.16803E-2,.129858E-2,0
LMRST-SAT,2015-058H,2026-06-06T18:35:03.230880,14.90541819,.0131558,64.7770,307.6608,62.6902,298.7533,0,U,40971,999,11200,.30547E-3,.3354E-4,0
SNAP-3 EDDIE,2015-058J,2026-06-06T15:37:26.450976,15.58856529,.0030936,64.7422,131.0874,22.1287,338.1185,0,U,40972,999,11738,.1676E-2,.135511E-2,0
PROPCUBE 3,2015-058K,2026-06-06T15:13:54.879744,14.94197291,.0123585,64.7695,285.5042,64.1044,297.2748,0,U,40973,999,11322,.33723E-3,.4036E-4,0
BISONSAT,2015-058L,2026-06-06T13:04:42.290688,15.15972726,.0078299,64.7585,208.0451,51.6298,309.1826,0,U,40974,999,11400,.64215E-3,.13202E-3,0
SNAP-3 JIMI,2015-058M,2026-06-06T14:30:23.527008,15.02206649,.0105647,64.7651,253.2536,59.7101,301.4419,0,U,40975,999,11263,.43791E-3,.635E-4,0
PROPCUBE 1 (FLORA),2015-058N,2026-06-06T14:02:57.715008,14.89170993,.0130273,64.7758,328.0929,65.0852,296.3732,0,U,40976,999,11468,.32821E-3,.3473E-4,0
SINOD-D 3,2015-058P,2026-06-06T14:20:39.019776,14.93946885,.0118807,64.7737,308.8854,62.3341,298.9770,0,U,40977,999,11317,.39402E-3,.4661E-4,0
HORYU-4,2016-012D,2026-06-06T09:41:16.559232,15.88250571,.00026484,30.9846,157.7637,198.1452,161.9114,0,U,41340,999,56909,.12903588E-2,.388649E-2,0
RAVAN,2016-067B,2026-06-06T19:21:29.674080,15.53683350,.0005884,97.9898,46.1866,60.1310,300.0526,0,U,41849,999,52608,.81057E-3,.51994E-3,0
CELTEE 1,2016-067C,2026-06-06T14:32:18.763008,15.19578770,.0000654,98.0683,23.4510,88.6559,271.4749,0,U,41850,999,52427,.30592E-3,.6433E-4,0
OPTICUBE 04,2016-067D,2026-06-06T20:55:14.882592,15.09614970,.0016313,98.0710,9.6171,148.3966,211.8245,0,U,41851,999,52361,.19347E-3,.3048E-4,0
AEROCUBE 8D,2016-067E,2026-06-06T14:05:04.970112,15.24248501,.0004002,98.0694,26.9520,150.7564,209.3896,0,U,41852,999,52445,.40833E-3,.9889E-4,0
AEROCUBE 8C,2016-067F,2026-06-06T14:43:32.628576,15.24494142,.000676,98.0565,24.2218,96.9523,263.2482,0,U,41853,999,52445,.38542E-3,.9402E-4,0
CORVUS BC2,2017-042X,2026-06-06T16:46:05.946816,15.06231398,.0014152,97.4066,319.4581,142.1285,218.0941,0,U,42846,999,48548,.26634E-3,.3855E-4,0
CORVUS BC1,2017-042Y,2026-06-06T05:30:28.381824,15.06396296,.00133651,97.4093,319.8140,122.2429,238.0096,0,U,42847,999,48544,.25816413E-3,.3751E-4,0
MAKERSAT 0,2017-073D,2026-06-06T14:21:22.122144,15.31712547,.010629,97.4643,40.0370,311.3073,47.9054,0,U,43016,999,46484,.72748E-3,.26582E-3,0
